[{"OBJECT_NAME":"YAOGAN-36 01A","OBJECT_ID":"2022-120A","EPOCH":"2026-03-09T18:17:39.175872","MEAN_MOTION":15.22125163,"ECCENTRICITY":0.00052111,"INCLINATION":34.9902,"RA_OF_ASC_NODE":190.0789,"ARG_OF_PERICENTER":178.8422,"MEAN_ANOMALY":181.2305,"EPHEMERIS_TYPE":0,"CLASSIFICATION_TYPE":"U","NORAD_CAT_ID":53943,"ELEMENT_SET_NO":999,"REV_AT_EPOCH":19214,"BSTAR":0.00051239163,"MEAN_MOTION_DOT":0.00012015,"MEAN_MOTION_DDOT":0},{"OBJECT_NAME":"STARLINK-6101","OBJECT_ID":"2023-046Y","EPOCH":"2026-03-09T22:00:01.999584","MEAN_MOTION":15.17592192,"ECCENTRICITY":0.00011354,"INCLINATION":42.9997,"RA_OF_ASC_NODE":156.6579,"ARG_OF_PERICENTER":258.2594,"MEAN_ANOMALY":275.2462,"EPHEMERIS_TYPE":0,"CLASSIFICATION_TYPE":"U","NORAD_CAT_ID":56115,"ELEMENT_SET_NO":999,"REV_AT_EPOCH":577,"BSTAR":0.054602024,"MEAN_MOTION_DOT":0.0122169,"MEAN_MOTION_DDOT":0}]
